start=new Date('2022-05-16T00:00:00.000Z').valueOf();
sats=[{"APOAPSIS":"541.121","TLE_LINE2":"2 49763  53.2197 275.9891 0001995  42.6263 186.5927 15.08841357  1300","GP_ID":"203651147","EPHEMERIS_TYPE":"0","NORAD_CAT_ID":"49763","MEAN_ELEMENT_THEORY":"SGP4","LAUNCH_DATE":"2021-12-02","TIME_SYSTEM":"UTC","TLE_LINE1":"1 49763U 21115AR  22135.91667824  .00024256  00000-0  15368-2 0  9999","OBJECT_NAME":"STARLINK-3198","FILE":"3447521","PERIOD":"95.437","MEAN_ANOMALY":"186.5927","REV_AT_EPOCH":"130","COUNTRY_CODE":"US","REF_FRAME":"TEME","ELEMENT_SET_NO":"999","CENTER_NAME":"EARTH","CLASSIFICATION_TYPE":"U","BSTAR":"0.00153680000000","EPOCH":"2022-05-15T22:00:00.999936","ARG_OF_PERICENTER":"42.6263","SITE":"AFETR","RA_OF_ASC_NODE":"275.9891","DECAY_DATE":null,"RCS_SIZE":"LARGE","MEAN_MOTION":"15.08841357","ECCENTRICITY":"0.00019950","MEAN_MOTION_DDOT":"0.0000000000000","OBJECT_ID":"2021-115AR","SEMIMAJOR_AXIS":"6917.876","INCLINATION":"53.2197","OBJECT_TYPE":"PAYLOAD","PERIAPSIS":"538.361","MEAN_MOTION_DOT":"0.00024256"},{"TIME_SYSTEM":"UTC","LAUNCH_DATE":"2021-12-02","OBJECT_NAME":"STARLINK-3206","FILE":"3447521","TLE_LINE1":"1 49764U 21115AS  22135.91667824  .00031130  00000-0  19656-2 0  9993","PERIOD":"95.438","MEAN_ANOMALY":"86.5380","REV_AT_EPOCH":"130","APOAPSIS":"540.987","GP_ID":"203651397","TLE_LINE2":"2 49764  53.2182 276.0093 0001778  42.6949  86.5380 15.08836345  1304","EPHEMERIS_TYPE":"0","NORAD_CAT_ID":"49764","MEAN_ELEMENT_THEORY":"SGP4","DECAY_DATE":null,"MEAN_MOTION":"15.08836345","RCS_SIZE":"LARGE","MEAN_MOTION_DDOT":"0.0000000000000","OBJECT_ID":"2021-115AS","ECCENTRICITY":"0.00017780","SEMIMAJOR_AXIS":"6917.892","INCLINATION":"53.2182","MEAN_MOTION_DOT":"0.00031130","OBJECT_TYPE":"PAYLOAD","PERIAPSIS":"538.527","COUNTRY_CODE":"US","REF_FRAME":"TEME","BSTAR":"0.00196560000000","CENTER_NAME":"EARTH","CLASSIFICATION_TYPE":"U","ELEMENT_SET_NO":"999","EPOCH":"2022-05-15T22:00:00.999936","ARG_OF_PERICENTER":"42.6949","SITE":"AFETR","RA_OF_ASC_NODE":"276.0093"},{"COUNTRY_CODE":"US","REF_FRAME":"TEME","ELEMENT_SET_NO":"999","CLASSIFICATION_TYPE":"U","CENTER_NAME":"EARTH","BSTAR":"0.00191170000000","EPOCH":"2022-05-15T22:00:00.999936","ARG_OF_PERICENTER":"38.0220","RA_OF_ASC_NODE":"275.9989","SITE":"AFETR","DECAY_DATE":null,"RCS_SIZE":"LARGE","MEAN_MOTION":"15.08827496","ECCENTRICITY":"0.00018970","OBJECT_ID":"2021-115AT","MEAN_MOTION_DDOT":"0.0000000000000","INCLINATION":"53.2191","SEMIMAJOR_AXIS":"6917.919","PERIAPSIS":"538.471","OBJECT_TYPE":"PAYLOAD","MEAN_MOTION_DOT":"0.00030258","APOAPSIS":"541.096","TLE_LINE2":"2 49765  53.2191 275.9989 0001897  38.0220 151.1808 15.08827496  1301","GP_ID":"203652143","EPHEMERIS_TYPE":"0","MEAN_ELEMENT_THEORY":"SGP4","NORAD_CAT_ID":"49765","LAUNCH_DATE":"2021-12-02","TIME_SYSTEM":"UTC","TLE_LINE1":"1 49765U 21115AT  22135.91667824  .00030258  00000-0  19117-2 0  9996","FILE":"3447521","OBJECT_NAME":"STARLINK-3227","PERIOD":"95.438","MEAN_ANOMALY":"151.1808","REV_AT_EPOCH":"130"},{"LAUNCH_DATE":"2021-12-02","TIME_SYSTEM":"UTC","TLE_LINE1":"1 49766U 21115AU  22135.91667824  .00019080  00000-0  12135-2 0  9990","FILE":"3447521","OBJECT_NAME":"STARLINK-3190","PERIOD":"95.437","MEAN_ANOMALY":"71.6259","REV_AT_EPOCH":"130","APOAPSIS":"541.118","TLE_LINE2":"2 49766  53.2187 276.0096 0002005  37.5846  71.6259 15.08844628  1300","GP_ID":"203650397","EPHEMERIS_TYPE":"0","NORAD_CAT_ID":"49766","MEAN_ELEMENT_THEORY":"SGP4","DECAY_DATE":null,"RCS_SIZE":"LARGE","MEAN_MOTION":"15.08844628","ECCENTRICITY":"0.00020050","MEAN_MOTION_DDOT":"0.0000000000000","OBJECT_ID":"2021-115AU","INCLINATION":"53.2187","SEMIMAJOR_AXIS":"6917.866","OBJECT_TYPE":"PAYLOAD","PERIAPSIS":"538.344","MEAN_MOTION_DOT":"0.00019080","COUNTRY_CODE":"US","REF_FRAME":"TEME","ELEMENT_SET_NO":"999","CENTER_NAME":"EARTH","BSTAR":"0.00121350000000","CLASSIFICATION_TYPE":"U","EPOCH":"2022-05-15T22:00:00.999936","ARG_OF_PERICENTER":"37.5846","RA_OF_ASC_NODE":"276.0096","SITE":"AFETR"},{"TIME_SYSTEM":"UTC","LAUNCH_DATE":"2021-12-02","PERIOD":"95.438","OBJECT_NAME":"STARLINK-3192","FILE":"3447521","TLE_LINE1":"1 49767U 21115AV  22135.91667824  .00035763  00000-0  22542-2 0  9990","MEAN_ANOMALY":"106.5542","REV_AT_EPOCH":"130","APOAPSIS":"541.057","GP_ID":"203650647","TLE_LINE2":"2 49767  53.2202 276.0079 0001866  42.6713 106.5542 15.08833146  1300","EPHEMERIS_TYPE":"0","NORAD_CAT_ID":"49767","MEAN_ELEMENT_THEORY":"SGP4","DECAY_DATE":null,"RCS_SIZE":"LARGE","MEAN_MOTION":"15.08833146","SEMIMAJOR_AXIS":"6917.901","INCLINATION":"53.2202","MEAN_MOTION_DDOT":"0.0000000000000","OBJECT_ID":"2021-115AV","ECCENTRICITY":"0.00018660","PERIAPSIS":"538.475","OBJECT_TYPE":"PAYLOAD","MEAN_MOTION_DOT":"0.00035763","CENTER_NAME":"EARTH","CLASSIFICATION_TYPE":"U","BSTAR":"0.00225420000000","ELEMENT_SET_NO":"999","COUNTRY_CODE":"US","REF_FRAME":"TEME","EPOCH":"2022-05-15T22:00:00.999936","RA_OF_ASC_NODE":"276.0079","SITE":"AFETR","ARG_OF_PERICENTER":"42.6713"},{"EPOCH":"2022-05-15T22:00:00.999936","ARG_OF_PERICENTER":"48.6299","SITE":"AFETR","RA_OF_ASC_NODE":"276.0116","REF_FRAME":"TEME","COUNTRY_CODE":"US","ELEMENT_SET_NO":"999","CLASSIFICATION_TYPE":"U","CENTER_NAME":"EARTH","BSTAR":"0.00086271000000","ECCENTRICITY":"0.00017380","MEAN_MOTION_DDOT":"0.0000000000000","OBJECT_ID":"2021-115AW","SEMIMAJOR_AXIS":"6917.918","INCLINATION":"53.2168","OBJECT_TYPE":"PAYLOAD","PERIAPSIS":"538.581","MEAN_MOTION_DOT":"0.00013464","DECAY_DATE":null,"RCS_SIZE":"LARGE","MEAN_MOTION":"15.08827540","EPHEMERIS_TYPE":"0","MEAN_ELEMENT_THEORY":"SGP4","NORAD_CAT_ID":"49768","APOAPSIS":"540.986","TLE_LINE2":"2 49768  53.2168 276.0116 0001738  48.6299  20.6279 15.08827540  1301","GP_ID":"203651898","MEAN_ANOMALY":"20.6279","REV_AT_EPOCH":"130","LAUNCH_DATE":"2021-12-02","TIME_SYSTEM":"UTC","TLE_LINE1":"1 49768U 21115AW  22135.91667824  .00013464  00000-0  86271-3 0  9995","OBJECT_NAME":"STARLINK-3196","FILE":"3447521","PERIOD":"95.438"},{"OBJECT_TYPE":"PAYLOAD","PERIAPSIS":"538.322","MEAN_MOTION_DOT":"0.00036942","SEMIMAJOR_AXIS":"6917.908","INCLINATION":"53.2188","MEAN_MOTION_DDOT":"0.0000000000000","OBJECT_ID":"2021-115AX","ECCENTRICITY":"0.00020970","MEAN_MOTION":"15.08831093","RCS_SIZE":"LARGE","DECAY_DATE":null,"SITE":"AFETR","RA_OF_ASC_NODE":"276.0114","ARG_OF_PERICENTER":"35.9854","EPOCH":"2022-05-15T22:00:00.999936","CENTER_NAME":"EARTH","CLASSIFICATION_TYPE":"U","BSTAR":"0.00232760000000","ELEMENT_SET_NO":"999","COUNTRY_CODE":"US","REF_FRAME":"TEME","REV_AT_EPOCH":"130","MEAN_ANOMALY":"53.2114","PERIOD":"95.438","FILE":"3447521","OBJECT_NAME":"STARLINK-3208","TLE_LINE1":"1 49769U 21115AX  22135.91667824  .00036942  00000-0  23276-2 0  9997","TIME_SYSTEM":"UTC","LAUNCH_DATE":"2021-12-02","NORAD_CAT_ID":"49769","MEAN_ELEMENT_THEORY":"SGP4","EPHEMERIS_TYPE":"0","GP_ID":"203651643","TLE_LINE2":"2 49769  53.2188 276.0114 0002097  35.9854  53.2114 15.08831093  1305","APOAPSIS":"541.223"},{"EPHEMERIS_TYPE":"0","NORAD_CAT_ID":"49770","MEAN_ELEMENT_THEORY":"SGP4","APOAPSIS":"541.142","GP_ID":"203650898","TLE_LINE2":"2 49770  53.2166 276.0211 0002020  37.4509  11.7896 15.08840256  1308","MEAN_ANOMALY":"11.7896","REV_AT_EPOCH":"130","TIME_SYSTEM":"UTC","LAUNCH_DATE":"2021-12-02","OBJECT_NAME":"STARLINK-3191","FILE":"3447521","TLE_LINE1":"1 49770U 21115AY  22135.91667824 -.00018524  00000-0 -11487-2 0  9998","PERIOD":"95.438","EPOCH":"2022-05-15T22:00:00.999936","ARG_OF_PERICENTER":"37.4509","RA_OF_ASC_NODE":"276.0211","SITE":"AFETR","COUNTRY_CODE":"US","REF_FRAME":"TEME","CENTER_NAME":"EARTH","CLASSIFICATION_TYPE":"U","BSTAR":"-0.00114870000000","ELEMENT_SET_NO":"999","MEAN_MOTION_DDOT":"0.0000000000000","OBJECT_ID":"2021-115AY","ECCENTRICITY":"0.00020200","SEMIMAJOR_AXIS":"6917.880","INCLINATION":"53.2166","OBJECT_TYPE":"PAYLOAD","PERIAPSIS":"538.347","MEAN_MOTION_DOT":"-0.00018524","DECAY_DATE":null,"RCS_SIZE":"LARGE","MEAN_MOTION":"15.08840256"},{"SITE":"AFETR","RA_OF_ASC_NODE":"276.0182","ARG_OF_PERICENTER":"41.5874","EPOCH":"2022-05-15T22:00:00.999936","ELEMENT_SET_NO":"999","CENTER_NAME":"EARTH","CLASSIFICATION_TYPE":"U","BSTAR":"-0.00063210000000","REF_FRAME":"TEME","COUNTRY_CODE":"US","OBJECT_TYPE":"PAYLOAD","MEAN_MOTION_DOT":"-0.00010335","PERIAPSIS":"538.413","INCLINATION":"53.2147","SEMIMAJOR_AXIS":"6917.870","ECCENTRICITY":"0.00019110","MEAN_MOTION_DDOT":"0.0000000000000","OBJECT_ID":"2021-115AZ","MEAN_MOTION":"15.08843376","RCS_SIZE":"LARGE","DECAY_DATE":null,"NORAD_CAT_ID":"49771","MEAN_ELEMENT_THEORY":"SGP4","EPHEMERIS_TYPE":"0","TLE_LINE2":"2 49771  53.2147 276.0182 0001911  41.5874 347.6176 15.08843376  1302","GP_ID":"203651148","APOAPSIS":"541.057","REV_AT_EPOCH":"130","MEAN_ANOMALY":"347.6176","PERIOD":"95.437","TLE_LINE1":"1 49771U 21115AZ  22135.91667824 -.00010335  00000-0 -63210-3 0  9993","OBJECT_NAME":"STARLINK-3201","FILE":"3447521","LAUNCH_DATE":"2021-12-02","TIME_SYSTEM":"UTC"},{"TLE_LINE1":"1 50156U 21125A   22135.91667824 -.00012760  00000-0 -78517-3 0  9993","FILE":"3447521","OBJECT_NAME":"STARLINK-3317","PERIOD":"95.438","LAUNCH_DATE":"2021-12-18","TIME_SYSTEM":"UTC","REV_AT_EPOCH":"130","MEAN_ANOMALY":"257.3745","TLE_LINE2":"2 50156  53.2190  26.0029 0002202  41.6588 257.3745 15.08832283  1303","GP_ID":"203650424","APOAPSIS":"541.292","NORAD_CAT_ID":"50156","MEAN_ELEMENT_THEORY":"SGP4","EPHEMERIS_TYPE":"0","MEAN_MOTION":"15.08832283","RCS_SIZE":"LARGE","DECAY_DATE":null,"OBJECT_TYPE":"PAYLOAD","PERIAPSIS":"538.246","MEAN_MOTION_DOT":"-0.00012760","ECCENTRICITY":"0.00022020","MEAN_MOTION_DDOT":"0.0000000000000","OBJECT_ID":"2021-125A","SEMIMAJOR_AXIS":"6917.904","INCLINATION":"53.2190","COUNTRY_CODE":"US","REF_FRAME":"TEME","ELEMENT_SET_NO":"999","CLASSIFICATION_TYPE":"U","BSTAR":"-0.00078517000000","CENTER_NAME":"EARTH","ARG_OF_PERICENTER":"41.6588","RA_OF_ASC_NODE":"26.0029","SITE":"AFWTR","EPOCH":"2022-05-15T22:00:00.999936"}];
